{"type": "FeatureCollection", "features": [ {"type": "Feature", "properties": {"norad_id": 17070, "name": "POLAR BEAR", "group": "nnss", "lat": -62.958262529399775, "lon": 4.689402079874941, "alt_km": 998.9947720449727, "timestamp": "2025-12-08T13:49:32.061069+00:00", "meta": {"OBJECT_NAME": "POLAR BEAR", "OBJECT_ID": "1986-088A", "EPOCH": "2025-12-08T02:45:33.510816", "MEAN_MOTION": 13.75249378, "ECCENTRICITY": 0.0040681, "INCLINATION": 89.6178, "RA_OF_ASC_NODE": 183.9587, "ARG_OF_PERICENTER": 132.6802, "MEAN_ANOMALY": 348.3494, "EPHEMERIS_TYPE": 0, "CLASSIFICATION_TYPE": "U", "NORAD_CAT_ID": 17070, "ELEMENT_SET_NO": 999, "REV_AT_EPOCH": 95915, "BSTAR": 0.00014716512, "MEAN_MOTION_DOT": 1.53e-06, "MEAN_MOTION_DDOT": 0}, "tle": {"line1": "1 17070U 86088A   25342.11497119  .00000153  00000+0  14717-3 0  9995", "line2": "2 17070  89.6178 183.9587 0040681 132.6802 348.3494 13.75249378959151"}}, "geometry": {"type": "Point", "coordinates": [4.689402079874941, -62.958262529399775]}}, {"type": "Feature", "properties": {"norad_id": 18361, "name": "OSCAR 27", "group": "nnss", "lat": -54.14640388382348, "lon": -101.40157829128685, "alt_km": 1021.5235926488986, "timestamp": "2025-12-08T13:49:32.061079+00:00", "meta": {"OBJECT_NAME": "OSCAR 27", "OBJECT_ID": "1987-080A", "EPOCH": "2025-12-08T07:18:12.148992", "MEAN_MOTION": 13.44905437, "ECCENTRICITY": 0.01026062, "INCLINATION": 90.3742, "RA_OF_ASC_NODE": 79.1064, "ARG_OF_PERICENTER": 236.6523, "MEAN_ANOMALY": 122.4771, "EPHEMERIS_TYPE": 0, "CLASSIFICATION_TYPE": "U", "NORAD_CAT_ID": 18361, "ELEMENT_SET_NO": 999, "REV_AT_EPOCH": 87497, "BSTAR": 0.00032265234, "MEAN_MOTION_DOT": 2.03e-06, "MEAN_MOTION_DDOT": 0}, "tle": {"line1": "1 18361U 87080A   25342.30430728  .00000203  00000+0  32265-3 0  9990", "line2": "2 18361  90.3742  79.1064 0102606 236.6523 122.4771 13.44905437874974"}}, "geometry": {"type": "Point", "coordinates": [-101.40157829128685, -54.14640388382348]}}, {"type": "Feature", "properties": {"norad_id": 18362, "name": "OSCAR 29", "group": "nnss", "lat": -73.06947097504734, "lon": -101.65900561585131, "alt_km": 1023.095236449577, "timestamp": "2025-12-08T13:49:32.061090+00:00", "meta": {"OBJECT_NAME": "OSCAR 29", "OBJECT_ID": "1987-080B", "EPOCH": "2025-12-08T07:30:41.040864", "MEAN_MOTION": 13.44447272, "ECCENTRICITY": 0.01037513, "INCLINATION": 90.3754, "RA_OF_ASC_NODE": 79.5652, "ARG_OF_PERICENTER": 260.0358, "MEAN_ANOMALY": 160.5217, "EPHEMERIS_TYPE": 0, "CLASSIFICATION_TYPE": "U", "NORAD_CAT_ID": 18362, "ELEMENT_SET_NO": 999, "REV_AT_EPOCH": 87450, "BSTAR": 0.00028461817, "MEAN_MOTION_DOT": 1.78e-06, "MEAN_MOTION_DDOT": 0}, "tle": {"line1": "1 18362U 87080B   25342.31297501  .00000178  00000+0  28462-3 0  9997", "line2": "2 18362  90.3754  79.5652 0103751 260.0358 160.5217 13.44447272874509"}}, "geometry": {"type": "Point", "coordinates": [-101.65900561585131, -73.06947097504734]}}, {"type": "Feature", "properties": {"norad_id": 19070, "name": "OSCAR 23", "group": "nnss", "lat": -79.91836253526237, "lon": 18.073843094515524, "alt_km": 1156.3802733543225, "timestamp": "2025-12-08T13:49:32.061100+00:00", "meta": {"OBJECT_NAME": "OSCAR 23", "OBJECT_ID": "1988-033A", "EPOCH": "2025-12-08T03:42:21.852576", "MEAN_MOTION": 13.27786188, "ECCENTRICITY": 0.01891446, "INCLINATION": 90.3216, "RA_OF_ASC_NODE": 16.2505, "ARG_OF_PERICENTER": 192.6834, "MEAN_ANOMALY": 230.9419, "EPHEMERIS_TYPE": 0, "CLASSIFICATION_TYPE": "U", "NORAD_CAT_ID": 19070, "ELEMENT_SET_NO": 999, "REV_AT_EPOCH": 82192, "BSTAR": 0.00020927666, "MEAN_MOTION_DOT": 1.12e-06, "MEAN_MOTION_DDOT": 0}, "tle": {"line1": "1 19070U 88033A   25342.15441959  .00000112  00000+0  20928-3 0  9990", "line2": "2 19070  90.3216  16.2505 0189144 192.6834 230.9419 13.27786188821920"}}, "geometry": {"type": "Point", "coordinates": [18.073843094515524, -79.91836253526237]}}, {"type": "Feature", "properties": {"norad_id": 19071, "name": "OSCAR 32", "group": "nnss", "lat": 24.678845905792357, "lon": 16.24729117973245, "alt_km": 1280.079193005362, "timestamp": "2025-12-08T13:49:32.061110+00:00", "meta": {"OBJECT_NAME": "OSCAR 32", "OBJECT_ID": "1988-033B", "EPOCH": "2025-12-08T03:10:03.838368", "MEAN_MOTION": 13.27953113, "ECCENTRICITY": 0.01879768, "INCLINATION": 90.3221, "RA_OF_ASC_NODE": 16.3815, "ARG_OF_PERICENTER": 179.5931, "MEAN_ANOMALY": 244.4243, "EPHEMERIS_TYPE": 0, "CLASSIFICATION_TYPE": "U", "NORAD_CAT_ID": 19071, "ELEMENT_SET_NO": 999, "REV_AT_EPOCH": 82204, "BSTAR": 0.00017015886, "MEAN_MOTION_DOT": 9.3e-07, "MEAN_MOTION_DDOT": 0}, "tle": {"line1": "1 19071U 88033B   25342.13198887  .00000093  00000+0  17016-3 0  9990", "line2": "2 19071  90.3221  16.3815 0187976 179.5931 244.4243 13.27953113822048"}}, "geometry": {"type": "Point", "coordinates": [16.24729117973245, 24.678845905792357]}}, {"type": "Feature", "properties": {"norad_id": 19223, "name": "NOVA 2", "group": "nnss", "lat": -62.32739653195516, "lon": 78.25292910759627, "alt_km": 1180.8999459215192, "timestamp": "2025-12-08T13:49:32.061120+00:00", "meta": {"OBJECT_NAME": "NOVA 2", "OBJECT_ID": "1988-052A", "EPOCH": "2025-12-08T06:54:51.618816", "MEAN_MOTION": 13.22935188, "ECCENTRICITY": 0.00309565, "INCLINATION": 89.9871, "RA_OF_ASC_NODE": 78.2779, "ARG_OF_PERICENTER": 28.9755, "MEAN_ANOMALY": 338.4359, "EPHEMERIS_TYPE": 0, "CLASSIFICATION_TYPE": "U", "NORAD_CAT_ID": 19223, "ELEMENT_SET_NO": 999, "REV_AT_EPOCH": 80889, "BSTAR": 0.00028573746, "MEAN_MOTION_DOT": 1.29e-06, "MEAN_MOTION_DDOT": 0}, "tle": {"line1": "1 19223U 88052A   25342.28809744  .00000129  00000+0  28574-3 0  9998", "line2": "2 19223  89.9871  78.2779 0030956  28.9755 338.4359 13.22935188808890"}}, "geometry": {"type": "Point", "coordinates": [78.25292910759627, -62.32739653195516]}}, {"type": "Feature", "properties": {"norad_id": 19419, "name": "OSCAR 25", "group": "nnss", "lat": 79.5371702634025, "lon": 20.040887233833853, "alt_km": 1162.7658667815294, "timestamp": "2025-12-08T13:49:32.061130+00:00", "meta": {"OBJECT_NAME": "OSCAR 25", "OBJECT_ID": "1988-074A", "EPOCH": "2025-12-08T08:06:55.009152", "MEAN_MOTION": 13.4262217, "ECCENTRICITY": 0.00942963, "INCLINATION": 90.035, "RA_OF_ASC_NODE": 20.2297, "ARG_OF_PERICENTER": 258.6219, "MEAN_ANOMALY": 111.629, "EPHEMERIS_TYPE": 0, "CLASSIFICATION_TYPE": "U", "NORAD_CAT_ID": 19419, "ELEMENT_SET_NO": 999, "REV_AT_EPOCH": 82581, "BSTAR": 0.00026924969, "MEAN_MOTION_DOT": 1.65e-06, "MEAN_MOTION_DDOT": 0}, "tle": {"line1": "1 19419U 88074A   25342.33813668  .00000165  00000+0  26925-3 0  9993", "line2": "2 19419  90.0350  20.2297 0094296 258.6219 111.6290 13.42622170825810"}}, "geometry": {"type": "Point", "coordinates": [20.040887233833853, 79.5371702634025]}}, {"type": "Feature", "properties": {"norad_id": 19420, "name": "OSCAR 31", "group": "nnss", "lat": -35.1514807578676, "lon": 20.60561885901883, "alt_km": 1084.9939761544247, "timestamp": "2025-12-08T13:49:32.061140+00:00", "meta": {"OBJECT_NAME": "OSCAR 31", "OBJECT_ID": "1988-074B", "EPOCH": "2025-12-08T03:34:06.329568", "MEAN_MOTION": 13.42583508, "ECCENTRICITY": 0.00925642, "INCLINATION": 90.0367, "RA_OF_ASC_NODE": 20.5782, "ARG_OF_PERICENTER": 253.2781, "MEAN_ANOMALY": 166.2161, "EPHEMERIS_TYPE": 0, "CLASSIFICATION_TYPE": "U", "NORAD_CAT_ID": 19420, "ELEMENT_SET_NO": 999, "REV_AT_EPOCH": 82589, "BSTAR": 0.00019409151, "MEAN_MOTION_DOT": 1.21e-06, "MEAN_MOTION_DDOT": 0}, "tle": {"line1": "1 19420U 88074B   25342.14868437  .00000121  00000+0  19409-3 0  9999", "line2": "2 19420  90.0367  20.5782 0092564 253.2781 166.2161 13.42583508825895"}}, "geometry": {"type": "Point", "coordinates": [20.60561885901883, -35.1514807578676]}}]}